[{"OBJECT_NAME":"STARLINK-5381","OBJECT_ID":"2022-177J","EPOCH":"2026-03-09T04:59:00.420864","MEAN_MOTION":15.02534155,"ECCENTRICITY":0.00010759,"INCLINATION":43.0037,"RA_OF_ASC_NODE":135.8794,"ARG_OF_PERICENTER":252.4971,"MEAN_ANOMALY":107.5754,"EPHEMERIS_TYPE":0,"CLASSIFICATION_TYPE":"U","NORAD_CAT_ID":54828,"ELEMENT_SET_NO":999,"REV_AT_EPOCH":17688,"BSTAR":1.7111808e-5,"MEAN_MOTION_DOT":2.8e-7,"MEAN_MOTION_DDOT":0},{"OBJECT_NAME":"PSLV R\/B","OBJECT_ID":"2018-071C","EPOCH":"2026-03-09T22:40:07.416192","MEAN_MOTION":15.00058604,"ECCENTRICITY":0.00237177,"INCLINATION":97.444,"RA_OF_ASC_NODE":249.6196,"ARG_OF_PERICENTER":104.8167,"MEAN_ANOMALY":255.5687,"EPHEMERIS_TYPE":0,"CLASSIFICATION_TYPE":"U","NORAD_CAT_ID":43620,"ELEMENT_SET_NO":999,"REV_AT_EPOCH":40754,"BSTAR":0.00020356401,"MEAN_MOTION_DOT":2.493e-5,"MEAN_MOTION_DDOT":0}]
